{
"type": "FeatureCollection",
"name": "tracks",
"features": [
{ "type": "Feature", "properties": { "name": "Construction Course", "type": "running" }, "geometry": { "type": "LineString", "coordinates": [ [ -88.0807132, 41.7920193 ], [ -88.0807284, 41.7919296 ], [ -88.0807216, 41.7918475 ], [ -88.080723, 41.7917372 ], [ -88.0807189, 41.7915746 ], [ -88.0807091, 41.791521 ], [ -88.0806855, 41.7913604 ], [ -88.0806999, 41.7911666 ], [ -88.0806964, 41.791043 ], [ -88.0807164, 41.7909693 ], [ -88.0807098, 41.790945 ], [ -88.0807095, 41.7907867 ], [ -88.0807185, 41.7907051 ], [ -88.0807425, 41.7905762 ], [ -88.0807436, 41.7905007 ], [ -88.0807604, 41.7903016 ], [ -88.0807763, 41.7901743 ], [ -88.0807826, 41.7901229 ], [ -88.0807869, 41.790095 ], [ -88.0808023, 41.7899018 ], [ -88.0808049, 41.7898757 ], [ -88.0808628, 41.7896975 ], [ -88.0809246, 41.7895339 ], [ -88.08101, 41.7893497 ], [ -88.0810988, 41.7891571 ], [ -88.0811023, 41.7891101 ], [ -88.0811597, 41.7889654 ], [ -88.0811799, 41.7888916 ], [ -88.0812016, 41.7886962 ], [ -88.0811986, 41.7886698 ], [ -88.0811091, 41.7885047 ], [ -88.0808672, 41.7884185 ], [ -88.0806729, 41.7884186 ], [ -88.0803994, 41.788447 ], [ -88.0803599, 41.7884477 ], [ -88.0801112, 41.788465 ], [ -88.0800745, 41.7884691 ], [ -88.07989, 41.7885748 ], [ -88.0798307, 41.7887119 ], [ -88.0797473, 41.7888814 ], [ -88.0797289, 41.7889102 ], [ -88.0796134, 41.7890864 ], [ -88.0795349, 41.7892442 ], [ -88.0794809, 41.7894454 ], [ -88.0794575, 41.7896428 ], [ -88.0794541, 41.789739 ], [ -88.079462, 41.7899444 ], [ -88.0794583, 41.789971 ], [ -88.0794641, 41.7901524 ], [ -88.0794488, 41.7902339 ], [ -88.0794281, 41.7904362 ], [ -88.0794044, 41.7905834 ], [ -88.0793781, 41.7907409 ], [ -88.0793509, 41.7908834 ], [ -88.0793159, 41.7910867 ], [ -88.0793111, 41.7911115 ], [ -88.0792725, 41.7913081 ], [ -88.0792618, 41.791405 ], [ -88.0792353, 41.7915856 ], [ -88.0792283, 41.7916988 ], [ -88.0792383, 41.791888 ], [ -88.0792472, 41.7919408 ], [ -88.079285, 41.7921322 ], [ -88.0794036, 41.7923094 ], [ -88.0795477, 41.7924185 ], [ -88.0796265, 41.7925463 ], [ -88.0797373, 41.7927232 ], [ -88.0797605, 41.7927782 ], [ -88.0797668, 41.7928394 ], [ -88.0797269, 41.7928905 ], [ -88.0796002, 41.7930244 ], [ -88.0795832, 41.7930743 ], [ -88.0796069, 41.7932256 ], [ -88.0796428, 41.7934221 ], [ -88.0796461, 41.7934758 ], [ -88.0796136, 41.7936661 ], [ -88.0795968, 41.793721 ], [ -88.0795547, 41.7939042 ], [ -88.0795543, 41.794002 ], [ -88.0795982, 41.7941978 ], [ -88.0796093, 41.7942499 ], [ -88.0796444, 41.7943949 ], [ -88.0796889, 41.7945828 ], [ -88.0797017, 41.7946295 ], [ -88.0797563, 41.7947992 ], [ -88.0798296, 41.7949939 ], [ -88.0798501, 41.7950488 ], [ -88.0799305, 41.7952284 ], [ -88.0799715, 41.7952996 ], [ -88.0800599, 41.7954848 ], [ -88.0800834, 41.7955578 ], [ -88.0801079, 41.7957449 ], [ -88.0801178, 41.7957978 ], [ -88.0802236, 41.7959759 ], [ -88.080248, 41.795993 ], [ -88.0804407, 41.7960665 ], [ -88.0807074, 41.7960727 ], [ -88.080925, 41.7960058 ], [ -88.0811582, 41.7958993 ], [ -88.0811946, 41.7958884 ], [ -88.0814346, 41.7958816 ], [ -88.0816949, 41.7959143 ], [ -88.0819473, 41.795935 ], [ -88.0819828, 41.7959332 ], [ -88.0821757, 41.7958808 ], [ -88.0824136, 41.7957935 ], [ -88.0826464, 41.7957931 ], [ -88.0829064, 41.7958078 ], [ -88.0830393, 41.7958053 ], [ -88.0830735, 41.7958023 ], [ -88.083289, 41.7957374 ], [ -88.083513, 41.7956464 ], [ -88.0837487, 41.7955735 ], [ -88.0837606, 41.795572 ], [ -88.0837622, 41.7955699 ], [ -88.0836212, 41.7956361 ], [ -88.0838769, 41.7955804 ], [ -88.0841077, 41.7955141 ], [ -88.0841456, 41.7954767 ], [ -88.0842149, 41.7953474 ], [ -88.084218, 41.7953231 ], [ -88.0842882, 41.7951231 ], [ -88.084291, 41.7950199 ], [ -88.0843794, 41.7948526 ], [ -88.0844114, 41.7948357 ], [ -88.0846099, 41.7947726 ], [ -88.0848706, 41.7947337 ], [ -88.0848969, 41.7947219 ], [ -88.0850113, 41.7946022 ], [ -88.0850638, 41.7944386 ], [ -88.0849683, 41.7943487 ], [ -88.0848002, 41.794303 ], [ -88.0845391, 41.7943205 ], [ -88.0844729, 41.794319 ], [ -88.084216, 41.7943233 ], [ -88.0840862, 41.7943175 ], [ -88.0838274, 41.7943136 ], [ -88.0837661, 41.7943149 ], [ -88.0834985, 41.7943021 ], [ -88.0834335, 41.7943055 ], [ -88.08321, 41.7943591 ], [ -88.0830553, 41.7944128 ], [ -88.0829966, 41.7944299 ], [ -88.0827563, 41.7944795 ], [ -88.0826117, 41.79453 ], [ -88.0824858, 41.7945775 ], [ -88.0822959, 41.7946696 ], [ -88.0822376, 41.7946849 ], [ -88.0821805, 41.7946969 ], [ -88.0820476, 41.7947062 ], [ -88.0817945, 41.794733 ], [ -88.0815637, 41.7946964 ], [ -88.0813563, 41.7945846 ], [ -88.0813268, 41.794566 ], [ -88.0811253, 41.7944213 ], [ -88.0810237, 41.7943726 ], [ -88.0807837, 41.7943418 ], [ -88.0807452, 41.7943447 ], [ -88.0805331, 41.7943846 ], [ -88.0802995, 41.7944186 ], [ -88.08008, 41.7944615 ], [ -88.0798912, 41.7944234 ], [ -88.0797124, 41.7942748 ], [ -88.0795997, 41.7941046 ], [ -88.0795715, 41.7939015 ], [ -88.0795839, 41.793806 ], [ -88.0795777, 41.7937802 ], [ -88.0795912, 41.7937271 ], [ -88.0796175, 41.7935543 ], [ -88.0796148, 41.7933446 ], [ -88.0796072, 41.7933108 ], [ -88.0795482, 41.7931232 ], [ -88.0795803, 41.792945 ], [ -88.0797188, 41.7928153 ], [ -88.0797174, 41.7927909 ], [ -88.0796595, 41.7927279 ], [ -88.0795886, 41.7925519 ], [ -88.079579, 41.7925268 ], [ -88.0795067, 41.7923322 ], [ -88.079485, 41.792313 ], [ -88.0793204, 41.7922114 ], [ -88.0792621, 41.7920918 ], [ -88.0792414, 41.7919031 ], [ -88.0792073, 41.7917113 ], [ -88.0792153, 41.7916608 ], [ -88.0792602, 41.791463 ], [ -88.07927, 41.7913874 ], [ -88.0792713, 41.7911828 ], [ -88.0792192, 41.7911282 ], [ -88.0791902, 41.7911195 ], [ -88.078939, 41.7911017 ], [ -88.0789065, 41.7910988 ], [ -88.0788269, 41.7911193 ], [ -88.0788185, 41.791137 ], [ -88.0787668, 41.7913274 ], [ -88.0787513, 41.7913786 ], [ -88.0787189, 41.7914849 ], [ -88.0786837, 41.7915981 ], [ -88.0786444, 41.791796 ], [ -88.0786344, 41.7918491 ], [ -88.078624, 41.7920384 ], [ -88.0786252, 41.7920897 ], [ -88.0786539, 41.7922683 ], [ -88.0786943, 41.7924667 ], [ -88.0786567, 41.7925255 ], [ -88.0785892, 41.7925196 ], [ -88.0785534, 41.7925115 ], [ -88.0782954, 41.7924805 ], [ -88.0782621, 41.792485 ], [ -88.0780288, 41.7925674 ], [ -88.0778007, 41.7926424 ], [ -88.0777197, 41.7926662 ], [ -88.0774802, 41.792707 ], [ -88.0774024, 41.7927203 ], [ -88.077196, 41.7927227 ], [ -88.0771679, 41.7926983 ], [ -88.0771534, 41.7926703 ], [ -88.0771214, 41.7925704 ], [ -88.0770947, 41.7924032 ], [ -88.077092, 41.7923768 ], [ -88.0770587, 41.7921707 ], [ -88.0770476, 41.7921187 ], [ -88.0770047, 41.7919328 ], [ -88.0769606, 41.7917484 ], [ -88.0769469, 41.7916733 ], [ -88.0769063, 41.7914715 ], [ -88.0769063, 41.7914467 ], [ -88.0768738, 41.7913101 ], [ -88.0768644, 41.7912832 ], [ -88.0768313, 41.7912001 ], [ -88.0768089, 41.7911283 ], [ -88.0767469, 41.7910004 ], [ -88.0766658, 41.7908111 ], [ -88.0766465, 41.7907 ], [ -88.0766942, 41.7905944 ], [ -88.076872, 41.7904876 ], [ -88.0771112, 41.790442 ], [ -88.0771483, 41.7904372 ], [ -88.0773232, 41.7903982 ], [ -88.077372, 41.7903601 ], [ -88.0773963, 41.7902044 ], [ -88.0773686, 41.7900214 ], [ -88.0773859, 41.789944 ], [ -88.0775224, 41.7897964 ], [ -88.0777678, 41.7897384 ], [ -88.0780296, 41.7896831 ], [ -88.07823, 41.789647 ], [ -88.0784863, 41.789621 ], [ -88.0785619, 41.7896126 ], [ -88.0788187, 41.7896062 ], [ -88.0789575, 41.7896199 ], [ -88.0790732, 41.7897132 ], [ -88.0790669, 41.7898778 ], [ -88.0790339, 41.7900797 ], [ -88.07903, 41.7901295 ], [ -88.0790053, 41.7903165 ], [ -88.0789772, 41.7904956 ], [ -88.0789654, 41.7905832 ], [ -88.0789406, 41.7907826 ], [ -88.0789317, 41.7908574 ], [ -88.0789036, 41.7910507 ], [ -88.0789136, 41.7910902 ], [ -88.0789741, 41.7911037 ], [ -88.0790374, 41.7911032 ], [ -88.0791008, 41.7911138 ], [ -88.0791564, 41.7911248 ], [ -88.0792187, 41.7911296 ], [ -88.0792666, 41.7911263 ], [ -88.0792764, 41.7911118 ], [ -88.079319, 41.7910103 ], [ -88.0793318, 41.7909764 ], [ -88.0793648, 41.7907698 ], [ -88.0793668, 41.7907333 ], [ -88.0793993, 41.7905521 ], [ -88.0794014, 41.7905243 ], [ -88.0794173, 41.7903221 ], [ -88.0794283, 41.7902634 ], [ -88.0794456, 41.7901775 ], [ -88.0794666, 41.7900193 ], [ -88.0794679, 41.7898284 ], [ -88.0794692, 41.7897763 ], [ -88.0794987, 41.7895846 ], [ -88.0795041, 41.7895292 ], [ -88.0795321, 41.789334 ], [ -88.0795442, 41.7892538 ], [ -88.0796098, 41.7890648 ], [ -88.0796435, 41.7890185 ], [ -88.0797609, 41.7888512 ], [ -88.0798232, 41.7887561 ], [ -88.0798965, 41.7885806 ], [ -88.0800457, 41.7884497 ], [ -88.0802605, 41.7884211 ], [ -88.0805107, 41.7884074 ], [ -88.080585, 41.7883999 ], [ -88.0808309, 41.7883704 ], [ -88.080899, 41.7883622 ], [ -88.0811397, 41.788337 ], [ -88.0812456, 41.7883251 ], [ -88.0815216, 41.788314 ], [ -88.0815564, 41.7883144 ], [ -88.0817943, 41.7883453 ], [ -88.0818251, 41.7883521 ], [ -88.0820771, 41.7884204 ], [ -88.0821059, 41.788433 ], [ -88.0823433, 41.7885036 ], [ -88.0825095, 41.7885556 ], [ -88.0827151, 41.7886321 ], [ -88.0829407, 41.7886991 ], [ -88.082994, 41.7888163 ], [ -88.0829697, 41.789011 ], [ -88.0829414, 41.7890594 ], [ -88.0828381, 41.7892265 ], [ -88.0828155, 41.7892811 ], [ -88.0827848, 41.7894634 ], [ -88.0827857, 41.789488 ], [ -88.082689, 41.7896155 ], [ -88.0824516, 41.7897105 ], [ -88.0822884, 41.7898422 ], [ -88.0822672, 41.7898628 ], [ -88.0821668, 41.7900272 ], [ -88.0821547, 41.7900773 ], [ -88.0821549, 41.790125 ], [ -88.0821955, 41.7902229 ], [ -88.0822618, 41.790346 ], [ -88.0823216, 41.7904535 ], [ -88.0824216, 41.7906385 ], [ -88.0824258, 41.7907145 ], [ -88.0823416, 41.7909111 ], [ -88.0823158, 41.7909652 ], [ -88.0822203, 41.791138 ], [ -88.0822043, 41.7911908 ], [ -88.082163, 41.7913919 ], [ -88.0821639, 41.7914495 ], [ -88.0821771, 41.7916348 ], [ -88.0821453, 41.7917179 ], [ -88.0819402, 41.7918548 ], [ -88.0817248, 41.7919468 ], [ -88.0816857, 41.7919519 ], [ -88.0815083, 41.7919008 ], [ -88.0813524, 41.791765 ], [ -88.0812634, 41.7915865 ], [ -88.081248, 41.7915613 ], [ -88.0812001, 41.7913572 ], [ -88.0811889, 41.7913253 ], [ -88.0811685, 41.7912675 ], [ -88.0811477, 41.7911896 ] ] } }
]
}
